*******************************************************************************
Ephemeris / WWW_USER Mon Mar 10 07:31:44 2025 Pasadena, USA      / Horizons    
*******************************************************************************
Target body name: (2017 UX51)                     {source: JPL#22}
Center body name: Earth (399)                     {source: DE441}
Center-site name: Mauna Kea
*******************************************************************************
Start time      : A.D. 2018-Sep-13 04:36:00.0000 UT      
Stop  time      : A.D. 2018-Sep-13 15:59:00.0000 UT      
Step-size       : 1 minutes
*******************************************************************************
Target pole/equ : undefined
Target radii    : undefined                                                    
Center geodetic : 204.5278, 19.8260847, 4.21024   {E-lon(deg),Lat(deg),Alt(km)}
Center cylindric: 204.5278, 6006.35451, 2151.0229 {E-lon(deg),Dxy(km),Dz(km)}
Center pole/equ : ITRF93                          {East-longitude positive}
Center radii    : 6378.137, 6378.137, 6356.752 km {Equator_a, b, pole_c}       
Target primary  : Sun
Vis. interferer : MOON (R_eq= 1737.400) km        {source: DE441}
Rel. light bend : Sun                             {source: DE441}
Rel. lght bnd GM: 1.3271E+11 km^3/s^2                                          
Small-body perts: Yes                             {source: SB441-N16}
Atmos refraction: NO (AIRLESS)
RA format       : HMS
Time format     : CAL 
Calendar mode   : Mixed Julian/Gregorian
RTS-only print  : NO       
EOP file        : eop.250307.p250603                                           
EOP coverage    : DATA-BASED 1962-JAN-20 TO 2025-MAR-07. PREDICTS-> 2025-JUN-02
Units conversion: 1 au= 149597870.700 km, c= 299792.458 km/s, 1 day= 86400.0 s 
Table cut-offs 1: Elevation (-90.0deg=NO ),Airmass (>38.000=NO), Daylight (YES)
Table cut-offs 2: Solar elongation (  0.0,180.0=NO ),Local Hour Angle( 0.0=NO )
Table cut-offs 3: RA/DEC angular rate (     0.0=NO )                           
*******************************************************************************
Initial IAU76/J2000 heliocentric ecliptic osculating elements (au, days, deg.):
  EPOCH=  2458433.5 ! 2018-Nov-11.00 (TDB)         Residual RMS= .12444        
   EC= .7474905367293002   QR= 7.612253692784782   TP= 2459819.8104231078      
   OM= 217.7952286585891   W=  255.0338939179157   IN= 90.52400691057457       
  Equivalent ICRF heliocentric cartesian coordinates (au, au/d):
   X= 8.209785034050050E+00  Y= 6.297741083246843E+00  Z= 1.446459094674425E+00
  VX=-3.080259200599625E-03 VY=-2.498125597102637E-05 VZ=-6.110805734701701E-03
Asteroid physical parameters (km, seconds, rotational period in hours):        
   GM= n.a.                RAD= n.a.               ROTPER= n.a.                
   H= 11.                  G= .150                 B-V= n.a.                   
                           ALBEDO= n.a.            STYP= n.a.                  
*******************************************************************************
 Date__(UT)__HR:MN     R.A._________(ICRF)_________DEC
******************************************************
$$SOE
 2018-Sep-13 04:36 Cm  02 44 27.305534 +10 48 32.49354
 2018-Sep-13 04:37 Cm  02 44 27.298005 +10 48 32.35242
 2018-Sep-13 04:38 Cm  02 44 27.290475 +10 48 32.21131
 2018-Sep-13 04:39 Cm  02 44 27.282944 +10 48 32.07020
 2018-Sep-13 04:40 Cm  02 44 27.275413 +10 48 31.92909
 2018-Sep-13 04:41 Cm  02 44 27.267880 +10 48 31.78798
 2018-Sep-13 04:42 Cm  02 44 27.260347 +10 48 31.64687
 2018-Sep-13 04:43 Cm  02 44 27.252812 +10 48 31.50576
 2018-Sep-13 04:44 Cm  02 44 27.245277 +10 48 31.36465
 2018-Sep-13 04:45 Cm  02 44 27.237740 +10 48 31.22355
 2018-Sep-13 04:46 Cm  02 44 27.230203 +10 48 31.08245
 2018-Sep-13 04:47 Cm  02 44 27.222665 +10 48 30.94134
 2018-Sep-13 04:48 Cm  02 44 27.215126 +10 48 30.80024
 2018-Sep-13 04:49 Cm  02 44 27.207585 +10 48 30.65914
 2018-Sep-13 04:50 Nm  02 44 27.200044 +10 48 30.51804
 2018-Sep-13 04:51 Nm  02 44 27.192502 +10 48 30.37694
 2018-Sep-13 04:52 Nm  02 44 27.184959 +10 48 30.23585
 2018-Sep-13 04:53 Nm  02 44 27.177415 +10 48 30.09475
 2018-Sep-13 04:54 Nm  02 44 27.169870 +10 48 29.95366
 2018-Sep-13 04:55 Nm  02 44 27.162324 +10 48 29.81256
 2018-Sep-13 04:56 Nm  02 44 27.154777 +10 48 29.67147
 2018-Sep-13 04:57 Nm  02 44 27.147229 +10 48 29.53038
 2018-Sep-13 04:58 Nm  02 44 27.139680 +10 48 29.38929
 2018-Sep-13 04:59 Nm  02 44 27.132130 +10 48 29.24820
 2018-Sep-13 05:00 Nm  02 44 27.124579 +10 48 29.10711
 2018-Sep-13 05:01 Nm  02 44 27.117028 +10 48 28.96602
 2018-Sep-13 05:02 Nm  02 44 27.109475 +10 48 28.82493
 2018-Sep-13 05:03 Nm  02 44 27.101921 +10 48 28.68385
 2018-Sep-13 05:04 Nm  02 44 27.094366 +10 48 28.54276
 2018-Sep-13 05:05 Nm  02 44 27.086810 +10 48 28.40168
 2018-Sep-13 05:06 Nm  02 44 27.079253 +10 48 28.26060
 2018-Sep-13 05:07 Nm  02 44 27.071695 +10 48 28.11952
 2018-Sep-13 05:08 Nm  02 44 27.064136 +10 48 27.97844
 2018-Sep-13 05:09 Nm  02 44 27.056576 +10 48 27.83736
 2018-Sep-13 05:10 Nm  02 44 27.049015 +10 48 27.69628
 2018-Sep-13 05:11 Nm  02 44 27.041453 +10 48 27.55520
 2018-Sep-13 05:12 Nm  02 44 27.033890 +10 48 27.41412
 2018-Sep-13 05:13 Nm  02 44 27.026326 +10 48 27.27305
 2018-Sep-13 05:14 Nm  02 44 27.018761 +10 48 27.13197
 2018-Sep-13 05:15 Am  02 44 27.011195 +10 48 26.99090
 2018-Sep-13 05:16 Am  02 44 27.003627 +10 48 26.84982
 2018-Sep-13 05:17 Am  02 44 26.996059 +10 48 26.70875
 2018-Sep-13 05:18 Am  02 44 26.988490 +10 48 26.56768
 2018-Sep-13 05:19 Am  02 44 26.980920 +10 48 26.42661
 2018-Sep-13 05:20 Am  02 44 26.973348 +10 48 26.28554
 2018-Sep-13 05:21 Am  02 44 26.965776 +10 48 26.14447
 2018-Sep-13 05:22 Am  02 44 26.958202 +10 48 26.00340
 2018-Sep-13 05:23 Am  02 44 26.950628 +10 48 25.86233
 2018-Sep-13 05:24 Am  02 44 26.943052 +10 48 25.72126
 2018-Sep-13 05:25 Am  02 44 26.935475 +10 48 25.58020
 2018-Sep-13 05:26 Am  02 44 26.927898 +10 48 25.43913
 2018-Sep-13 05:27 Am  02 44 26.920319 +10 48 25.29807
 2018-Sep-13 05:28 Am  02 44 26.912739 +10 48 25.15700
 2018-Sep-13 05:29 Am  02 44 26.905158 +10 48 25.01594
 2018-Sep-13 05:30 Am  02 44 26.897576 +10 48 24.87488
 2018-Sep-13 05:31 Am  02 44 26.889993 +10 48 24.73381
 2018-Sep-13 05:32 Am  02 44 26.882409 +10 48 24.59275
 2018-Sep-13 05:33 Am  02 44 26.874824 +10 48 24.45169
 2018-Sep-13 05:34 Am  02 44 26.867237 +10 48 24.31063
 2018-Sep-13 05:35 Am  02 44 26.859650 +10 48 24.16957
 2018-Sep-13 05:36 Am  02 44 26.852061 +10 48 24.02851
 2018-Sep-13 05:37 Am  02 44 26.844472 +10 48 23.88746
 2018-Sep-13 05:38 Am  02 44 26.836881 +10 48 23.74640
 2018-Sep-13 05:39 Am  02 44 26.829289 +10 48 23.60534
 2018-Sep-13 05:40 Am  02 44 26.821696 +10 48 23.46429
 2018-Sep-13 05:41  m  02 44 26.814102 +10 48 23.32323
 2018-Sep-13 05:42  m  02 44 26.806507 +10 48 23.18218
 2018-Sep-13 05:43  m  02 44 26.798911 +10 48 23.04112
 2018-Sep-13 05:44  m  02 44 26.791313 +10 48 22.90007
 2018-Sep-13 05:45  m  02 44 26.783715 +10 48 22.75901
 2018-Sep-13 05:46  m  02 44 26.776115 +10 48 22.61796
 2018-Sep-13 05:47  m  02 44 26.768515 +10 48 22.47691
 2018-Sep-13 05:48  m  02 44 26.760913 +10 48 22.33586
 2018-Sep-13 05:49  m  02 44 26.753310 +10 48 22.19480
 2018-Sep-13 05:50  m  02 44 26.745706 +10 48 22.05375
 2018-Sep-13 05:51  m  02 44 26.738101 +10 48 21.91270
 2018-Sep-13 05:52  m  02 44 26.730495 +10 48 21.77165
 2018-Sep-13 05:53  m  02 44 26.722887 +10 48 21.63060
 2018-Sep-13 05:54  m  02 44 26.715279 +10 48 21.48955
 2018-Sep-13 05:55  m  02 44 26.707669 +10 48 21.34851
 2018-Sep-13 05:56  m  02 44 26.700058 +10 48 21.20746
 2018-Sep-13 05:57  m  02 44 26.692446 +10 48 21.06641
 2018-Sep-13 05:58  m  02 44 26.684833 +10 48 20.92536
 2018-Sep-13 05:59  m  02 44 26.677219 +10 48 20.78431
 2018-Sep-13 06:00  m  02 44 26.669603 +10 48 20.64327
 2018-Sep-13 06:01  m  02 44 26.661987 +10 48 20.50222
 2018-Sep-13 06:02  m  02 44 26.654369 +10 48 20.36118
 2018-Sep-13 06:03  m  02 44 26.646750 +10 48 20.22013
 2018-Sep-13 06:04  m  02 44 26.639130 +10 48 20.07908
 2018-Sep-13 06:05  m  02 44 26.631509 +10 48 19.93804
 2018-Sep-13 06:06  m  02 44 26.623887 +10 48 19.79699
 2018-Sep-13 06:07  m  02 44 26.616263 +10 48 19.65595
 2018-Sep-13 06:08  m  02 44 26.608639 +10 48 19.51491
 2018-Sep-13 06:09  m  02 44 26.601013 +10 48 19.37386
 2018-Sep-13 06:10  m  02 44 26.593386 +10 48 19.23282
 2018-Sep-13 06:11  m  02 44 26.585758 +10 48 19.09177
 2018-Sep-13 06:12  m  02 44 26.578129 +10 48 18.95073
 2018-Sep-13 06:13  m  02 44 26.570498 +10 48 18.80969
 2018-Sep-13 06:14  m  02 44 26.562867 +10 48 18.66864
 2018-Sep-13 06:15  m  02 44 26.555234 +10 48 18.52760
 2018-Sep-13 06:16  m  02 44 26.547600 +10 48 18.38656
 2018-Sep-13 06:17  m  02 44 26.539965 +10 48 18.24552
 2018-Sep-13 06:18  m  02 44 26.532329 +10 48 18.10447
 2018-Sep-13 06:19  m  02 44 26.524691 +10 48 17.96343
 2018-Sep-13 06:20  m  02 44 26.517053 +10 48 17.82239
 2018-Sep-13 06:21  m  02 44 26.509413 +10 48 17.68135
 2018-Sep-13 06:22  m  02 44 26.501772 +10 48 17.54031
 2018-Sep-13 06:23  m  02 44 26.494129 +10 48 17.39926
 2018-Sep-13 06:24  m  02 44 26.486486 +10 48 17.25822
 2018-Sep-13 06:25  m  02 44 26.478842 +10 48 17.11718
 2018-Sep-13 06:26  m  02 44 26.471196 +10 48 16.97614
 2018-Sep-13 06:27  m  02 44 26.463549 +10 48 16.83510
 2018-Sep-13 06:28  m  02 44 26.455901 +10 48 16.69405
 2018-Sep-13 06:29  m  02 44 26.448251 +10 48 16.55301
 2018-Sep-13 06:30  m  02 44 26.440601 +10 48 16.41197
 2018-Sep-13 06:31  m  02 44 26.432949 +10 48 16.27093
 2018-Sep-13 06:32  m  02 44 26.425296 +10 48 16.12989
 2018-Sep-13 06:33  m  02 44 26.417642 +10 48 15.98885
 2018-Sep-13 06:34  m  02 44 26.409987 +10 48 15.84780
 2018-Sep-13 06:35  m  02 44 26.402330 +10 48 15.70676
 2018-Sep-13 06:36  m  02 44 26.394672 +10 48 15.56572
 2018-Sep-13 06:37  m  02 44 26.387014 +10 48 15.42468
 2018-Sep-13 06:38  m  02 44 26.379353 +10 48 15.28364
